STARLINK-1267           
1 45384U 20019AA  26068.42636192  .00097422  00000+0  17136-2 0  9994
2 45384  53.0515 128.2688 0002699 271.1817  88.8882 15.49705648330246
FLOCK 4Q-30             
1 58286U 23174AG  26068.74967257  .00036209  00000+0  63092-3 0  9997
2 58286  97.3945 157.9303 0007320 149.9876 210.1797 15.50633546130359
