[{"OBJECT_NAME":"STARLINK-1267","OBJECT_ID":"2020-019AA","EPOCH":"2026-03-09T10:13:57.669888","MEAN_MOTION":15.49705648,"ECCENTRICITY":0.00026991,"INCLINATION":53.0515,"RA_OF_ASC_NODE":128.2688,"ARG_OF_PERICENTER":271.1817,"MEAN_ANOMALY":88.8882,"EPHEMERIS_TYPE":0,"CLASSIFICATION_TYPE":"U","NORAD_CAT_ID":45384,"ELEMENT_SET_NO":999,"REV_AT_EPOCH":33024,"BSTAR":0.0017135901,"MEAN_MOTION_DOT":0.00097422,"MEAN_MOTION_DDOT":0},{"OBJECT_NAME":"FLOCK 4Q-30","OBJECT_ID":"2023-174AG","EPOCH":"2026-03-09T17:59:31.710048","MEAN_MOTION":15.50633546,"ECCENTRICITY":0.00073196,"INCLINATION":97.3945,"RA_OF_ASC_NODE":157.9303,"ARG_OF_PERICENTER":149.9876,"MEAN_ANOMALY":210.1797,"EPHEMERIS_TYPE":0,"CLASSIFICATION_TYPE":"U","NORAD_CAT_ID":58286,"ELEMENT_SET_NO":999,"REV_AT_EPOCH":13035,"BSTAR":0.0006309198,"MEAN_MOTION_DOT":0.00036209,"MEAN_MOTION_DDOT":0}]
